NORAD_CAT_ID,OBJECT_NAME,OBJECT_TYPE,EPOCH,MEAN_MOTION,ECCENTRICITY,INCLINATION,RA_OF_ASC_NODE,ARG_OF_PERICENTER,MEAN_ANOMALY,BSTAR,MEAN_MOTION_DOT,MEAN_MOTION_DDOT,TLE_LINE0,TLE_LINE1,TLE_LINE2,SEMIMAJOR_AXIS,PERIOD,APOGEE,PERIGEE,DECAYED
55661.0,STARLINK-5475,PAYLOAD,2023-05-29 07:58:52,15.69913301,0.0003549,69.9982,227.1903,271.6047,88.4742,2.7285e-06,1.15e-06,0.0,0 STARLINK-5475,1 55661U 23021AK  23149.33255236  .00000115  00000-0  27285-5 0  9995,2 55661  69.9982 227.1903 0003549 271.6047  88.4742 15.69913301 16334,6737.282,91.725,361.538,356.756,0.0
55661.0,STARLINK-5475,PAYLOAD,2023-05-29 14:05:52,15.69916278,0.0003178,69.9984,226.4743,266.1213,93.962,5.117e-06,4.02e-06,0.0,0 STARLINK-5475,1 55661U 23021AK  23149.58741797  .00000402  00000-0  51170-5 0  9993,2 55661  69.9984 226.4743 0003178 266.1213  93.9620 15.69916278 16671,6737.274,91.725,361.28,356.997,0.0
55661.0,STARLINK-5475,PAYLOAD,2023-05-29 15:37:38,15.69914633,0.0002739,69.9996,226.2963,256.047,104.0421,9.8305e-07,-9.4e-07,0.0,0 STARLINK-5475,1 55661U 23021AK  23149.65113660 -.00000094  00000-0  98305-6 0  9993,2 55661  69.9996 226.2963 0002739 256.0470 104.0421 15.69914633 16688,6737.278,91.725,360.989,357.298,0.0
55661.0,STARLINK-5475,PAYLOAD,2023-05-30 08:26:53,15.6994871,0.0002874,69.9972,224.3224,265.1403,94.9465,-2.9165e-05,-3.721e-05,0.0,0 STARLINK-5475,1 55661U 23021AK  23150.35200560 -.00003721  00000-0 -29165-4 0  9995,2 55661  69.9972 224.3224 0002874 265.1403  94.9465 15.69948710 16495,6737.181,91.723,360.982,357.109,0.0
55661.0,STARLINK-5475,PAYLOAD,2023-05-30 14:33:54,15.69928739,0.0002961,69.9972,223.6059,264.4907,95.5951,1.0241e-05,1.019e-05,0.0,0 STARLINK-5475,1 55661U 23021AK  23150.60687580  .00001019  00000-0  10241-4 0  9995,2 55661  69.9972 223.6059 0002961 264.4907  95.5951 15.69928739 16532,6737.238,91.724,361.098,357.108,0.0
55661.0,STARLINK-5475,PAYLOAD,2023-05-31 07:23:11,15.69916714,0.00034,69.9976,221.637,266.3291,93.7516,1.3417e-05,1.4e-05,0.0,0 STARLINK-5475,1 55661U 23021AK  23151.30776732  .00001400  00000-0  13417-4 0  9993,2 55661  69.9976 221.6370 0003400 266.3291  93.7516 15.69916714 16645,6737.272,91.725,361.428,356.847,0.0
55661.0,STARLINK-5475,PAYLOAD,2023-05-31 13:30:10,15.69945696,0.0003546,69.9976,220.9209,265.1246,94.9545,-2.781e-05,-3.559e-05,0.0,0 STARLINK-5475,1 55661U 23021AK  23151.56262201 -.00003559  00000-0 -27810-4 0  9993,2 55661  69.9976 220.9209 0003546 265.1246  94.9545 15.69945696 16989,6737.189,91.723,361.443,356.665,0.0
55661.0,STARLINK-5475,PAYLOAD,2023-06-01 07:51:12,15.69921974,0.000315,69.9984,218.7718,254.2606,105.8243,1.5821e-05,1.69e-05,0.0,0 STARLINK-5475,1 55661U 23021AK  23152.32723085  .00001690  00000-0  15821-4 0  9991,2 55661  69.9984 218.7718 0003150 254.2606 105.8243 15.69921974 17103,6737.257,91.724,361.244,357.0,0.0
55661.0,STARLINK-5475,PAYLOAD,2023-06-01 21:36:59,15.69921585,0.0003015,69.9965,217.1601,265.3953,94.6898,3.2034e-06,1.73e-06,0.0,0 STARLINK-5475,1 55661U 23021AK  23152.90068507  .00000173  00000-0  32034-5 0  9997,2 55661  69.9965 217.1601 0003015 265.3953  94.6898 15.69921585 16898,6737.258,91.724,361.155,357.092,0.0
55661.0,STARLINK-5475,PAYLOAD,2023-06-02 12:54:30,15.69922754,0.0003191,69.9981,215.3679,258.1714,101.9124,1.1611e-05,1.184e-05,0.0,0 STARLINK-5475,1 55661U 23021AK  23153.53785056  .00001184  00000-0  11611-4 0  9992,2 55661  69.9981 215.3679 0003191 258.1714 101.9124 15.69922754 17299,6737.255,91.724,361.27,356.97,0.0
55661.0,STARLINK-5475,PAYLOAD,2023-06-03 07:15:31,15.699245,0.0003356,69.9979,213.219,261.1135,98.968,5.2715e-06,4.21e-06,0.0,0 STARLINK-5475,1 55661U 23021AK  23154.30245255  .00000421  00000-0  52715-5 0  9994,2 55661  69.9979 213.2190 0003356 261.1135  98.9680 15.69924500 17119,6737.25,91.724,361.376,356.854,0.0
55661.0,STARLINK-5475,PAYLOAD,2023-06-03 13:22:32,15.6992747,0.0003331,69.998,212.5026,261.0602,99.0216,7.1244e-06,6.44e-06,0.0,0 STARLINK-5475,1 55661U 23021AK  23154.55731707  .00000644  00000-0  71244-5 0  9998,2 55661  69.9980 212.5026 0003331 261.0602  99.0216 15.69927470 17455,6737.242,91.724,361.351,356.862,0.0
55661.0,STARLINK-5475,PAYLOAD,2023-06-03 21:01:17,15.6992687,0.0003376,69.998,211.6076,263.3469,96.7342,2.1682e-05,2.395e-05,0.0,0 STARLINK-5475,1 55661U 23021AK  23154.87589827  .00002395  00000-0  21682-4 0  9992,2 55661  69.9980 211.6076 0003376 263.3469  96.7342 15.69926870 17508,6737.243,91.724,361.383,356.834,0.0
55661.0,STARLINK-5475,PAYLOAD,2023-06-04 13:50:34,15.699282,0.0003415,69.9978,209.6384,263.2095,96.8712,1.068e-05,1.072e-05,0.0,0 STARLINK-5475,1 55661U 23021AK  23155.57678263  .00001072  00000-0  10680-4 0  9990,2 55661  69.9978 209.6384 0003415 263.2095  96.8712 15.69928200 17615,6737.239,91.724,361.405,356.804,0.0
55661.0,STARLINK-5475,PAYLOAD,2023-06-04 15:22:19,15.69931651,0.0003338,69.9974,209.4584,261.1513,98.9305,5.7651e-06,4.81e-06,0.0,0 STARLINK-5475,1 55661U 23021AK  23155.64049782  .00000481  00000-0  57651-5 0  9999,2 55661  69.9974 209.4584 0003338 261.1513  98.9305 15.69931651 17320,6737.23,91.724,361.343,356.846,0.0
55661.0,STARLINK-5475,PAYLOAD,2023-06-05 05:08:05,15.69923471,0.000326,69.9974,207.8465,267.9208,92.1614,6.4967e-06,5.68e-06,0.0,0 STARLINK-5475,1 55661U 23021AK  23156.21395481  .00000568  00000-0  64967-5 0  9997,2 55661  69.9974 207.8465 0003260 267.9208  92.1614 15.69923471 17419,6737.253,91.724,361.314,356.922,0.0
55661.0,STARLINK-5475,PAYLOAD,2023-06-05 06:39:50,15.69932954,0.0002723,69.9984,207.6663,254.8551,105.2343,2.2559e-05,2.502e-05,0.0,0 STARLINK-5475,1 55661U 23021AK  23156.27766235  .00002502  00000-0  22559-4 0  9992,2 55661  69.9984 207.6663 0002723 254.8551 105.2343 15.69932954 17429,6737.226,91.724,360.925,357.256,0.0
55661.0,STARLINK-5475,PAYLOAD,2023-06-05 12:46:51,15.69921058,0.0002845,69.9978,206.95,285.2352,74.8529,8.9564e-06,8.64e-06,0.0,0 STARLINK-5475,1 55661U 23021AK  23156.53254081  .00000864  00000-0  89564-5 0  9991,2 55661  69.9978 206.9500 0002845 285.2352  74.8529 15.69921058 17763,6737.26,91.724,361.042,357.208,0.0
55661.0,STARLINK-5475,PAYLOAD,2023-06-05 15:50:22,15.69912451,0.0002639,69.9979,206.5912,286.5208,73.5697,-2.7874e-06,-5.47e-06,0.0,0 STARLINK-5475,1 55661U 23021AK  23156.65998237 -.00000547  00000-0 -27874-5 0  9998,2 55661  69.9979 206.5912 0002639 286.5208  73.5697 15.69912451 17783,6737.284,91.725,360.927,357.372,0.0
55661.0,STARLINK-5475,PAYLOAD,2023-06-05 20:25:37,15.69921052,0.0003433,69.9969,206.0532,271.7235,88.3567,-1.2857e-06,-3.67e-06,0.0,0 STARLINK-5475,1 55661U 23021AK  23156.85112348 -.00000367  00000-0 -12857-5 0  9996,2 55661  69.9969 206.0532 0003433 271.7235  88.3567 15.69921052 17512,6737.26,91.724,361.438,356.812,0.0
55661.0,STARLINK-5475,PAYLOAD,2023-06-06 11:43:07,15.69930272,0.0003281,69.997,204.2606,270.2652,89.8167,1.1127e-05,1.126e-05,0.0,0 STARLINK-5475,1 55661U 23021AK  23157.48828364  .00001126  00000-0  11127-4 0  9998,2 55661  69.9970 204.2606 0003281 270.2652  89.8167 15.69930272 17914,6737.233,91.724,361.309,356.888,0.0
55661.0,STARLINK-5475,PAYLOAD,2023-06-06 14:46:38,15.69928429,0.0003418,69.9981,203.9038,273.8625,86.2179,9.902e-06,9.78e-06,0.0,0 STARLINK-5475,1 55661U 23021AK  23157.61571761  .00000978  00000-0  99020-5 0  9992,2 55661  69.9981 203.9038 0003418 273.8625  86.2179 15.69928429 17636,6737.239,91.724,361.407,356.801,0.0
55661.0,STARLINK-5475,PAYLOAD,2023-06-07 06:04:09,15.69925597,0.0003311,69.9989,202.1116,275.8922,84.1896,-1.2325e-06,-3.61e-06,0.0,0 STARLINK-5475,1 55661U 23021AK  23158.25288679 -.00000361  00000-0 -12325-5 0  9997,2 55661  69.9989 202.1116 0003311 275.8922  84.1896 15.69925597 18037,6737.247,91.724,361.343,356.881,0.0
55661.0,STARLINK-5475,PAYLOAD,2023-06-07 19:49:55,15.69921012,0.0003272,69.9991,200.4992,280.7236,79.3591,3.1604e-05,3.588e-05,0.0,0 STARLINK-5475,1 55661U 23021AK  23158.82634029  .00003588  00000-0  31604-4 0  9996,2 55661  69.9991 200.4992 0003272 280.7236  79.3591 15.69921012 18128,6737.26,91.724,361.329,356.921,0.0
55661.0,STARLINK-5475,PAYLOAD,2023-06-08 06:32:11,15.69921596,0.0003236,69.9976,199.2461,277.733,82.3498,5.5024e-06,4.49e-06,0.0,0 STARLINK-5475,1 55661U 23021AK  23159.27235888  .00000449  00000-0  55024-5 0  9992,2 55661  69.9976 199.2461 0003236 277.7330  82.3498 15.69921596 17898,6737.258,91.724,361.303,356.943,0.0
55661.0,STARLINK-5475,PAYLOAD,2023-06-08 12:39:12,15.69925016,0.0003222,69.9977,198.5302,272.3695,87.7131,5.4983e-06,4.48e-06,0.0,0 STARLINK-5475,1 55661U 23021AK  23159.52722302  .00000448  00000-0  54983-5 0  9994,2 55661  69.9977 198.5302 0003222 272.3695  87.7131 15.69925016 18238,6737.249,91.724,361.284,356.943,0.0
55661.0,STARLINK-5475,PAYLOAD,2023-06-09 08:31:59,15.69910329,0.0003528,69.9977,196.2026,271.976,88.1031,-6.7543e-06,-1.024e-05,0.0,0 STARLINK-5475,1 55661U 23021AK  23160.35555006 -.00001024  00000-0 -67543-5 0  9991,2 55661  69.9977 196.2026 0003528 271.9760  88.1031 15.69910329 18069,6737.291,91.725,361.532,356.779,0.0
55661.0,STARLINK-5475,PAYLOAD,2023-06-09 10:03:44,15.69910651,0.0003502,69.9974,196.0234,271.8881,88.1914,-7.0175e-06,-1.056e-05,0.0,0 STARLINK-5475,1 55661U 23021AK  23160.41926687 -.00001056  00000-0 -70175-5 0  9995,2 55661  69.9974 196.0234 0003502 271.8881  88.1914 15.69910651 18372,6737.29,91.725,361.514,356.795,0.0
55661.0,STARLINK-5475,PAYLOAD,2023-06-09 19:14:14,15.69924668,0.0003515,69.9974,194.9498,260.4813,99.5986,1.3223e-05,1.377e-05,0.0,0 STARLINK-5475,1 55661U 23021AK  23160.80155515  .00001377  00000-0  13223-4 0  9996,2 55661  69.9974 194.9498 0003515 260.4813  99.5986 15.69924668 18439,6737.25,91.724,361.483,356.746,0.0
55661.0,STARLINK-5475,PAYLOAD,2023-06-10 02:52:59,15.69926334,0.0003694,69.9973,194.0528,264.8093,95.2681,1.6621e-05,1.786e-05,0.0,0 STARLINK-5475,1 55661U 23021AK  23161.12013654  .00001786  00000-0  16621-4 0  9998,2 55661  69.9973 194.0528 0003694 264.8093  95.2681 15.69926334 18188,6737.245,91.724,361.598,356.621,0.0
